IRIDIUM 177             
1 56727U 23068T   26068.88060990  .00001487  00000+0  19232-3 0  9997
2 56727  86.2006  15.9326 0002321  75.4952 284.6526 14.80207725151676
ALOS-4 (DAICHI-4)       
1 60182U 24123A   26067.79136198  .00002536  00000+0  34629-3 0  9996
2 60182  97.9194 166.4039 0001490 100.3284 259.8096 14.79484045 91037
