[{"OBJECT_NAME":"IRIDIUM 177","OBJECT_ID":"2023-068T","EPOCH":"2026-03-09T21:08:04.695360","MEAN_MOTION":14.80207725,"ECCENTRICITY":0.00023207,"INCLINATION":86.2006,"RA_OF_ASC_NODE":15.9326,"ARG_OF_PERICENTER":75.4952,"MEAN_ANOMALY":284.6526,"EPHEMERIS_TYPE":0,"CLASSIFICATION_TYPE":"U","NORAD_CAT_ID":56727,"ELEMENT_SET_NO":999,"REV_AT_EPOCH":15167,"BSTAR":0.00019232012,"MEAN_MOTION_DOT":1.487e-5,"MEAN_MOTION_DDOT":0},{"OBJECT_NAME":"ALOS-4 (DAICHI-4)","OBJECT_ID":"2024-123A","EPOCH":"2026-03-08T18:59:33.675072","MEAN_MOTION":14.79484045,"ECCENTRICITY":0.00014902,"INCLINATION":97.9194,"RA_OF_ASC_NODE":166.4039,"ARG_OF_PERICENTER":100.3284,"MEAN_ANOMALY":259.8096,"EPHEMERIS_TYPE":0,"CLASSIFICATION_TYPE":"U","NORAD_CAT_ID":60182,"ELEMENT_SET_NO":999,"REV_AT_EPOCH":9103,"BSTAR":0.00034629245,"MEAN_MOTION_DOT":2.536e-5,"MEAN_MOTION_DDOT":0}]
